[{"OBJECT_NAME":"STARLINK-34948","OBJECT_ID":"2025-175T","EPOCH":"2026-03-09T15:07:20.482752","MEAN_MOTION":15.05646323,"ECCENTRICITY":0.0003,"INCLINATION":97.6018,"RA_OF_ASC_NODE":302.6288,"ARG_OF_PERICENTER":82.1533,"MEAN_ANOMALY":278.0034,"EPHEMERIS_TYPE":0,"CLASSIFICATION_TYPE":"U","NORAD_CAT_ID":65191,"ELEMENT_SET_NO":999,"REV_AT_EPOCH":3263,"BSTAR":0.00023346,"MEAN_MOTION_DOT":3.309e-5,"MEAN_MOTION_DDOT":0},{"OBJECT_NAME":"PSLV DEB","OBJECT_ID":"2001-049CG","EPOCH":"2026-03-09T17:57:10.653408","MEAN_MOTION":15.10779615,"ECCENTRICITY":0.00259315,"INCLINATION":97.9011,"RA_OF_ASC_NODE":146.9612,"ARG_OF_PERICENTER":307.1678,"MEAN_ANOMALY":170.9563,"EPHEMERIS_TYPE":0,"CLASSIFICATION_TYPE":"U","NORAD_CAT_ID":27136,"ELEMENT_SET_NO":999,"REV_AT_EPOCH":32989,"BSTAR":0.00047952924,"MEAN_MOTION_DOT":7.956e-5,"MEAN_MOTION_DDOT":0}]
